CCSDS_OMM_VERS,COMMENT,CREATION_DATE,ORIGINATOR,OBJECT_NAME,OBJECT_ID,CENTER_NAME,REF_FRAME,TIME_SYSTEM,MEAN_ELEMENT_THEORY,EPOCH,MEAN_MOTION,ECCENTRICITY,INCLINATION,RA_OF_ASC_NODE,ARG_OF_PERICENTER,MEAN_ANOMALY,EPHEMERIS_TYPE,CLASSIFICATION_TYPE,NORAD_CAT_ID,ELEMENT_SET_NO,REV_AT_EPOCH,BSTAR,MEAN_MOTION_DOT,MEAN_MOTION_DDOT,SEMIMAJOR_AXIS,PERIOD,APOAPSIS,PERIAPSIS,OBJECT_TYPE,RCS_SIZE,COUNTRY_CODE,LAUNCH_DATE,SITE,DECAY_DATE,FILE,GP_ID,TLE_LINE0,TLE_LINE1,TLE_LINE2
"2.0","GENERATED VIA SPACE-TRACK.ORG API","2023-01-02T17:42:09","18 SPCS","COSMOS 1261","1981-031A","EARTH","TEME","UTC","SGP4","2023-01-02T05:18:09.561600","2.00741553","0.61761940","68.3589","169.9419","21.6698","355.8042","0","U","12376","999","20213","0.00000000000000","0.00000073","0.0000000000000","26544.649","717.340","36561.004","3772.024","PAYLOAD","LARGE","CIS","1981-03-31","PKMTR","","3729583","222012282","0 COSMOS 1261","1 12376U 81031A   23002.22094400  .00000073  00000-0  00000-0 0  9990","2 12376  68.3589 169.9419 6176194  21.6698 355.8042  2.00741553202137"
"2.0","GENERATED VIA SPACE-TRACK.ORG API","2023-01-01T17:55:23","18 SPCS","SL-6 R/B(2)","1981-031D","EARTH","TEME","UTC","SGP4","2023-01-01T08:41:34.897344","2.03539560","0.63414840","67.1245","164.6260","25.1881","358.2088","0","U","12384","999","31041","0.00000000000000","-0.00000519","0.0000000000000","26300.820","707.479","36601.308","3244.062","ROCKET BODY","LARGE","CIS","1981-03-31","PKMTR","","3728759","221912881","0 SL-6 R/B(2)","1 12384U 81031D   23001.36220946 -.00000519  00000-0  00000-0 0  9995","2 12384  67.1245 164.6260 6341484  25.1881 358.2088  2.03539560310411"
"2.0","GENERATED VIA SPACE-TRACK.ORG API","2023-01-02T17:42:09","18 SPCS","SL-6 R/B(2)","1981-031D","EARTH","TEME","UTC","SGP4","2023-01-02T08:14:46.905216","2.03538098","0.63418740","67.1243","164.5513","25.1690","357.3065","0","U","12384","999","31043","0.00000000000000","-0.00000485","0.0000000000000","26300.946","707.484","36602.539","3243.082","ROCKET BODY","LARGE","CIS","1981-03-31","PKMTR","","3729583","222010541","0 SL-6 R/B(2)","1 12384U 81031D   23002.34359844 -.00000485  00000-0  00000-0 0  9996","2 12384  67.1243 164.5513 6341874  25.1690 357.3065  2.03538098310432"
"2.0","GENERATED VIA SPACE-TRACK.ORG API","2023-01-02T17:42:09","18 SPCS","DYNAMICS EXPLORER 1","1981-070A","EARTH","TEME","UTC","SGP4","2023-01-02T08:09:45.297504","3.52576889","0.61997800","90.5747","38.1148","265.0308","26.4066","0","U","12624","999","68065","0.00023386000000","0.00000027","0.0000000000000","18234.728","408.422","23161.723","551.463","PAYLOAD","LARGE","US","1981-08-03","AFWTR","","3729583","222011789","0 DYNAMICS EXPLORER 1","1 12624U 81070A   23002.34010761  .00000027  00000-0  23386-3 0  9994","2 12624  90.5747  38.1148 6199780 265.0308  26.4066  3.52576889680650"
"2.0","GENERATED VIA SPACE-TRACK.ORG API","2023-01-01T14:56:13","18 SPCS","DYNAMICS EXPLORER 1","1981-070A","EARTH","TEME","UTC","SGP4","2023-01-01T04:55:50.816064","3.52576758","0.61996010","90.5747","38.1094","265.4122","26.2039","0","U","12624","999","68067","0.00030071000000","0.00000038","0.0000000000000","18234.732","408.422","23161.403","551.791","PAYLOAD","LARGE","US","1981-08-03","AFWTR","","3728555","221904799","0 DYNAMICS EXPLORER 1","1 12624U 81070A   23001.20544926  .00000038  00000-0  30071-3 0  9994","2 12624  90.5747  38.1094 6199601 265.4122  26.2039  3.52576758680675"
"2.0","GENERATED VIA SPACE-TRACK.ORG API","2023-01-01T17:55:23","18 SPCS","DYNAMICS EXPLORER 1","1981-070A","EARTH","TEME","UTC","SGP4","2023-01-01T04:55:50.816064","3.52576758","0.61996010","90.5747","38.1094","265.4122","26.2039","0","U","12624","999","68061","0.00030071000000","0.00000038","0.0000000000000","18234.732","408.422","23161.403","551.791","PAYLOAD","LARGE","US","1981-08-03","AFWTR","","3728759","221912136","0 DYNAMICS EXPLORER 1","1 12624U 81070A   23001.20544926  .00000038  00000-0  30071-3 0  9994","2 12624  90.5747  38.1094 6199601 265.4122  26.2039  3.52576758680619"
"2.0","GENERATED VIA SPACE-TRACK.ORG API","2023-01-02T17:42:09","18 SPCS","COSMOS 1285","1981-071A","EARTH","TEME","UTC","SGP4","2023-01-02T11:02:57.913728","1.98051629","0.62751370","68.1270","175.0196","22.3423","0.2864","0","U","12627","999","22151","0.00000000000000","0.00000191","0.0000000000000","26784.460","727.083","37213.941","3598.709","PAYLOAD","LARGE","CIS","1981-08-04","PKMTR","","3729583","222011047","0 COSMOS 1285","1 12627U 81071A   23002.46039252  .00000191  00000-0  00000-0 0  9994","2 12627  68.1270 175.0196 6275137  22.3423   0.2864  1.98051629221512"
"2.0","GENERATED VIA SPACE-TRACK.ORG API","2023-01-02T02:38:49","18 SPCS","COSMOS 1285","1981-071A","EARTH","TEME","UTC","SGP4","2023-01-01T14:13:35.544000","1.98052337","0.62747460","68.1270","175.0775","22.3624","101.6887","0","U","12627","999","22149","0.00000000000000","0.00000103","0.0000000000000","26784.396","727.081","37212.789","3599.733","PAYLOAD","LARGE","CIS","1981-08-04","PKMTR","","3728952","221970248","0 COSMOS 1285","1 12627U 81071A   23001.59277250  .00000103  00000-0  00000-0 0  9992","2 12627  68.1270 175.0775 6274746  22.3624 101.6887  1.98052337221498"
"2.0","GENERATED VIA SPACE-TRACK.ORG API","2023-01-02T14:56:14","18 SPCS","COSMOS 1285","1981-071A","EARTH","TEME","UTC","SGP4","2023-01-02T11:02:57.913728","1.98051629","0.62751370","68.1270","175.0196","22.3423","0.2864","0","U","12627","999","22153","0.00000000000000","0.00000191","0.0000000000000","26784.460","727.083","37213.941","3598.709","PAYLOAD","LARGE","CIS","1981-08-04","PKMTR","","3729419","222003761","0 COSMOS 1285","1 12627U 81071A   23002.46039252  .00000191  00000-0  00000+0 0  9993","2 12627  68.1270 175.0196 6275137  22.3423   0.2864  1.98051629221534"
"2.0","GENERATED VIA SPACE-TRACK.ORG API","2023-01-01T17:55:23","18 SPCS","COSMOS 1285","1981-071A","EARTH","TEME","UTC","SGP4","2023-01-01T10:48:16.917120","1.98052458","0.62746860","68.1265","175.0868","22.3657","0.0337","0","U","12627","999","22149","0.00000000000000","0.00000088","0.0000000000000","26784.385","727.080","37212.611","3599.890","PAYLOAD","LARGE","CIS","1981-08-04","PKMTR","","3728759","221913388","0 COSMOS 1285","1 12627U 81071A   23001.45019580  .00000088  00000-0  00000-0 0  9999","2 12627  68.1265 175.0868 6274686  22.3657   0.0337  1.98052458221490"
"2.0","GENERATED VIA SPACE-TRACK.ORG API","2023-01-02T17:42:09","18 SPCS","DELTA 1 R/B(2)","1981-070E","EARTH","TEME","UTC","SGP4","2023-01-02T03:05:20.889600","3.52477306","0.61962750","90.5831","39.1337","277.1744","20.6725","0","U","12679","999","53073","0.00074104000000","0.00000151","0.0000000000000","18238.162","408.537","23160.894","559.160","ROCKET BODY","LARGE","US","1981-08-03","AFWTR","","3729583","222011555","0 DELTA 1 R/B(2)","1 12679U 81070E   23002.12871400  .00000151  00000-0  74104-3 0  9997","2 12679  90.5831  39.1337 6196275 277.1744  20.6725  3.52477306530734"
"2.0","GENERATED VIA SPACE-TRACK.ORG API","2023-01-01T17:55:23","18 SPCS","DELTA 1 R/B(2)","1981-070E","EARTH","TEME","UTC","SGP4","2023-01-01T06:39:36.603936","3.52477047","0.61962390","90.5828","39.1297","277.4599","20.5546","0","U","12679","999","53070","0.00075265000000","0.00000155","0.0000000000000","18238.171","408.537","23160.842","559.229","ROCKET BODY","LARGE","US","1981-08-03","AFWTR","","3728759","221912392","0 DELTA 1 R/B(2)","1 12679U 81070E   23001.27750699  .00000155  00000-0  75265-3 0  9991","2 12679  90.5828  39.1297 6196239 277.4599  20.5546  3.52477047530705"
"2.0","GENERATED VIA SPACE-TRACK.ORG API","2023-01-02T02:38:49","18 SPCS","SL-6 R/B(2)","1981-071D","EARTH","TEME","UTC","SGP4","2023-01-01T13:13:20.434080","1.99217989","0.66376720","65.7498","171.6080","33.3306","354.6572","0","U","12680","999","21959","0.00000000000000","0.00001060","0.0000000000000","26679.815","722.826","38010.865","2592.494","ROCKET BODY","LARGE","CIS","1981-08-04","PKMTR","","3728952","221970503","0 SL-6 R/B(2)","1 12680U 81071D   23001.55093095  .00001060  00000-0  00000-0 0  9993","2 12680  65.7498 171.6080 6637672  33.3306 354.6572  1.99217989219599"
"2.0","GENERATED VIA SPACE-TRACK.ORG API","2023-01-03T02:40:54","18 SPCS","SL-6 R/B(2)","1981-071D","EARTH","TEME","UTC","SGP4","2023-01-02T13:18:58.743648","1.99219810","0.66382620","65.7502","171.5202","33.3162","354.6507","0","U","12680","999","21961","0.00000000000000","0.00001060","0.0000000000000","26679.652","722.820","38012.169","2590.865","ROCKET BODY","LARGE","CIS","1981-08-04","PKMTR","","3729873","222044346","0 SL-6 R/B(2)","1 12680U 81071D   23002.55484657  .00001060  00000-0  00000-0 0  9992","2 12680  65.7502 171.5202 6638262  33.3162 354.6507  1.99219810219612"
"2.0","GENERATED VIA SPACE-TRACK.ORG API","2023-01-01T17:55:23","18 SPCS","SL-6 R/B(2)","1981-071D","EARTH","TEME","UTC","SGP4","2023-01-01T13:13:20.473824","1.99217963","0.66376710","65.7498","171.6080","33.3308","354.6572","0","U","12680","999","21959","0.00000000000000","0.00001060","0.0000000000000","26679.817","722.826","38010.867","2592.497","ROCKET BODY","LARGE","CIS","1981-08-04","PKMTR","","3728759","221912642","0 SL-6 R/B(2)","1 12680U 81071D   23001.55093141  .00001060  00000-0  00000-0 0  9995","2 12680  65.7498 171.6080 6637671  33.3308 354.6572  1.99217963219592"
"2.0","GENERATED VIA SPACE-TRACK.ORG API","2023-01-02T02:26:13","18 SPCS","SL-6 R/B(2)","1981-071D","EARTH","TEME","UTC","SGP4","2023-01-01T13:13:20.434080","1.99217989","0.66376720","65.7498","171.6080","33.3306","354.6572","0","U","12680","999","21962","0.00000000000000","0.00001060","0.0000000000000","26679.815","722.826","38010.865","2592.494","ROCKET BODY","LARGE","CIS","1981-08-04","PKMTR","","3728939","221966489","0 SL-6 R/B(2)","1 12680U 81071D   23001.55093095  .00001060  00000-0  00000+0 0  9992","2 12680  65.7498 171.6080 6637672  33.3306 354.6572  1.99217989219623"
